[{"OBJECT_NAME":"STARLINK-35704","OBJECT_ID":"2025-244R","EPOCH":"2026-03-09T17:20:49.087968","MEAN_MOTION":15.3017154,"ECCENTRICITY":0.00011299,"INCLINATION":53.1586,"RA_OF_ASC_NODE":229.8229,"ARG_OF_PERICENTER":70.9723,"MEAN_ANOMALY":289.14,"EPHEMERIS_TYPE":0,"CLASSIFICATION_TYPE":"U","NORAD_CAT_ID":66221,"ELEMENT_SET_NO":999,"REV_AT_EPOCH":2166,"BSTAR":0.00052518206,"MEAN_MOTION_DOT":0.00015213,"MEAN_MOTION_DDOT":0},{"OBJECT_NAME":"ELECTRON KICK STAGE R\/B","OBJECT_ID":"2024-047B","EPOCH":"2026-03-09T21:11:54.433824","MEAN_MOTION":15.27307897,"ECCENTRICITY":0.00092426,"INCLINATION":97.6338,"RA_OF_ASC_NODE":46.9382,"ARG_OF_PERICENTER":20.6031,"MEAN_ANOMALY":339.5579,"EPHEMERIS_TYPE":0,"CLASSIFICATION_TYPE":"U","NORAD_CAT_ID":59225,"ELEMENT_SET_NO":999,"REV_AT_EPOCH":10999,"BSTAR":0.00091229405,"MEAN_MOTION_DOT":0.00024409,"MEAN_MOTION_DDOT":0}]
